#cP2019  1  1  0  0  0.00000000      96 ORBIT IGS14 HLM  IGS
## 2034 172800.00000000   900.00000000 58484 0.0000000000000
+   32   G01G02G03G04G05G06G07G08G09G10G11G12G13G14G15G16G17
+        G18G19G20G21G22G23G24G25G26G27G28G29G30G31G32  0  0
+          0  0  0  0  0  0  0  0  0  0  0  0  0  0  0  0  0
+          0  0  0  0  0  0  0  0  0  0  0  0  0  0  0  0  0
+          0  0  0  0  0  0  0  0  0  0  0  0  0  0  0  0  0
++         2  2  2  0  2  2  2  2  2  2  2  2  2  2  2  2  2
++         3  2  2  2  2  2  2  2  2  2  2  2  2  2  2  0  0
++         0  0  0  0  0  0  0  0  0  0  0  0  0  0  0  0  0
++         0  0  0  0  0  0  0  0  0  0  0  0  0  0  0  0  0
++         0  0  0  0  0  0  0  0  0  0  0  0  0  0  0  0  0
%c G  cc GPS ccc cccc cccc cccc cccc ccccc ccccc ccccc ccccc
%c cc cc ccc ccc cccc cccc cccc cccc ccccc ccccc ccccc ccccc
%f  1.2500000  1.025000000  0.00000000000  0.000000000000000
%f  0.0000000  0.000000000  0.00000000000  0.000000000000000
%i    0    0    0    0      0      0      0      0         0
%i    0    0    0    0      0      0      0      0         0
/* FINAL ORBIT COMBINATION FROM WEIGHTED AVERAGE OF:        
/* cod emr esa gfz grg jpl mit ngs sio                      
/* REFERENCED TO IGS TIME (IGST) AND TO WEIGHTED MEAN POLE: 
/* PCV:IGS14_2035 OL/AL:FES2004  NONE     Y  ORB:CMB CLK:CMB
*  2019  1  1 19 30  0.00000000
PG01 -21617.589346 -12378.049780   9474.234840   -138.313475  5  3  5  97       
PG02  11936.448734  21193.577526  11495.807828   -101.703641  6  8  8  74       
PG03 -14504.278984  -4480.620869  21755.499259    174.212435  5  6  4 108       
PG04   -624.616174 -15909.785104 -21427.471682 999999.999999
PG05   4516.055164  22542.285437 -13242.936878      0.649018  3  9  7 104       
PG06   -303.801020  18145.993816  19425.589263    305.241572  6  7  7  83       
PG07 -18188.276855    886.573880 -19247.538213     59.637509  4  5  4 109       
PG08 -17211.054145  -8191.964100 -18521.850684   -127.609017  5  5  4 103       
PG09 -25443.983181   7635.848502   -241.067168    476.731621  4  6  5  64       
PG10  11177.771103 -22775.343988  -7478.191719    142.617481  3  6  4  78       
PG11 -24583.393614  -9700.498302  -1212.797934   -681.101694  4  8  3 100       
PG12  12411.274344   8457.385825  21728.292393    279.808284  7  6  5  96       
PG13   9309.902861  13314.232499 -21136.121467    -79.713417  3  7  2 114       
PG14   7447.332511 -15866.712472  20206.147688    -93.802872  4  6  6  95       
PG15  20286.778306   5676.129377 -16653.928234   -333.965026  4  6  4  97       
PG16  -1869.220394 -22473.748281 -13840.168657    -10.136246  8  8  8 116       
PG17 -16921.501525  14110.575342  15162.916319    -10.571166  4  6  3  93       
PG18 -19465.756456 -18182.014395   -823.165517     11.539186 10  9  8  89       
PG19  -8246.164857  15033.921643  20023.209376   -367.804602  7  7  5  89       
PG20  14141.583147 -15946.919705 -15884.336178    520.643551  6  9  5  82       
PG21  15983.674135  -4932.880252 -19809.231004   -276.825795  5  3  4 100       
PG22 -12767.674985 -12648.764425  19799.828332   -612.813035  3  5  3 115       
PG23 -25045.022652     62.403302   9744.059444   -201.815109  6  5  5  80       
PG24  21739.465201  14790.220583   4694.975217    -60.249990  5  5  5  84       
PG25  15736.236363  -4374.483135  20699.772643   -699.771228  4  4  6  97       
PG26   3124.154775 -25977.286019  -4027.823054     84.430922  5  9  5  65       
PG27  -6981.392483 -13393.859683 -21952.988825    -41.806622  7  2  4  96       
PG28 -13237.354227  21397.161856  -8012.093411    760.577605     3  4  88       
PG29  26158.888374  -3648.777597   2773.151056    302.684158  2  6  6  79       
PG30 -10190.857719  11899.782912 -21422.935995    -29.062651  5  4  4 106       
PG31  -1656.034167 -19550.536476  17705.943228     68.746523  4  4  6 105       
PG32  14388.858194 -15730.771731  15816.668285   -293.644026  6  6  4  84       
*  2019  1  1 19 45  0.00000000
PG01 -22184.682961 -13154.513314   6814.675863   -138.319073  6  3  5  93       
PG02  10757.605761  20490.578289  13803.768605   -101.712742  6  7  7  94       
PG03 -13942.826505  -6898.723633  21495.213107    174.214926  5  5  4 106       
PG04   1585.924409 -16763.013811 -20656.578646 999999.999999
PG05   4004.711735  23840.697590 -10886.412478      0.649077  3  9  7  92       
PG06  -2047.367526  16674.590926  20607.163056    305.234991  6  7  8  94       
PG07 -19667.511034   -681.265668 -17804.977013     59.631100  5  5  4  97       
PG08 -15153.516715  -8975.913870 -19885.787783   -127.610242  5  5  3 121       
PG09 -25398.547041   7326.686620   2592.574244    476.727696  4  5  5  76       
PG10  11198.275438 -21729.945278 -10101.757265    142.612060  2  6  5  73       
PG11 -24225.464545 -10022.765192  -3951.334285   -681.097443  5  8  4 107       
PG12  11678.692866  10830.314264  21093.371591    279.805150  7  7  5  92       
PG13   6933.612419  13800.672329 -21729.305812    -79.712395  3  6  2 105       
PG14   9603.775795 -16243.102927  18922.089125    -93.802574  4  6  6  88       
PG15  18553.678340   6586.468291 -18250.716415   -333.963593  4  6  4  96       
PG16  -1272.485871 -23789.096965 -11438.786780    -10.138311  8  8  8 112       
PG17 -18452.386867  14356.869807  12909.039920    -10.566271  4  6  4  97       
PG18 -19140.633505 -18254.284580  -3639.451918     11.542422 10 10  8  95       
PG19 -10480.887973  15404.634502  18680.097294   -367.801296  7  7  4  83       
PG20  14160.024160 -14024.641277 -17612.627689    520.643725  6  9  5  95       
PG21  17724.123862  -3322.311644 -18668.861673   -276.819657  5  4  4 105       
PG22 -12294.731198 -14764.399577  18587.027513   -612.821256  3  5  4 103       
PG23 -23976.636128   -535.011287  12154.945753   -201.814123  7  5  5  96       
PG24  21856.999973  15261.783557   1933.615316    -60.250118  6  5  5  77       
PG25  15262.630302  -1967.978676  21426.357119   -699.776085  4  4  7 103       
PG26   3464.373757 -26215.315942  -1197.924807     84.440500  5  8  5  49       
PG27  -4602.631154 -14147.883262 -22083.273675    -41.812185  7  1  4  53       
PG28 -13062.264167  20253.573455 -10632.746946    760.578119     3  5  76       
PG29  25735.022467  -3355.931241   5623.399979    302.676601  2  6  6  92       
PG30 -11930.689222  10157.712302 -21436.727086    -29.068156  5  4  4 105       
PG31    -26.289859 -18178.763923  19221.682134     68.744068  4  3  6 109       
PG32  16058.225910 -16057.760813  13730.370049   -293.629200  6  6  4  86       
*  2019  1  1 20  0  0.00000000
PG01 -22556.917089 -13702.114907   4039.328673   -138.324788  6  4  5  85       
PG02   9349.838892  19707.615357  15884.252393   -101.722015  6  7  7  87       
PG03 -13516.670931  -9292.216101  20863.960186    174.217531  5  5  4 111       
PG04   3659.579757 -17684.017963 -19533.820318 999999.999999
PG05   3595.478720  24889.155995  -8341.537694      0.649221  3  9  7  79       
PG06  -3956.320128  15228.585992  21435.233777    305.228470  6  7  8  96       
PG07 -21084.688988  -2049.947330 -16055.250734     59.624801  5  6  5 102       
PG08 -13013.781213  -9919.755365 -20907.680782   -127.611286  5  5  3 117       
PG09 -25073.195839   6898.428949   5381.590960    476.723747  4  5  5  70       
PG10  11227.559250 -20402.195018 -12549.303806    142.606598  2  6  5  95       
PG11 -23590.113970 -10279.828173  -6621.551707   -681.092602  5  8  4 102       
PG12  11100.398835  13146.694252  20090.180904    279.802546  7  7  6  89       
PG13   4542.006438  14424.718215 -21952.727081    -79.711274  3  5  2 108       
PG14  11585.162343 -16686.545353  17318.330327    -93.802018  5  6  6  91       
PG15  16720.526321   7649.621680 -19543.334638   -333.962310  5  6  2  93       
PG16   -815.814762 -24859.872243  -8837.582936    -10.140279  8  8  8 110       
PG17 -19717.349420  14605.351629  10436.657418    -10.561589  4  5  5  90       
PG18 -18571.260084 -18154.188799  -6394.110356     11.545563 10 10  9  93       
PG19 -12522.746729  15851.932996  17009.052346   -367.797384  7  6  3 104       
PG20  14260.442897 -11929.859096 -19039.095489    520.643985  6  8  5  95       
PG21  19413.689309  -1890.114152 -17184.332658   -276.813488  5  4  4 101       
PG22 -11936.380619 -16748.678905  17060.510734   -612.828930  4  6  4 104       
PG23 -22701.318797  -1279.884592  14364.162556   -201.812767  7  5  5  97       
PG24  21748.243504  15540.348436   -860.417294    -60.250214  6  5  5  76       
PG25  14907.962511    519.116268  21776.689709   -699.780946  5  3  7  98       
PG26   3747.784839 -26150.741557   1652.799413     84.450040  5  8  5  63       
PG27  -2272.556957 -15030.351990 -21836.447683    -41.817744  7     4  88       
PG28 -12882.263241  18816.081051 -13065.771799    760.579608  3  4  5  88       
PG29  25024.390064  -2945.094016   8376.806115    302.669345  3  6  6  89       
PG30 -13738.455699   8517.350442 -21081.356754    -29.073670  4  3  5  97       
PG31   1784.967385 -16794.449160  20402.775450     68.742119  4  3  6 101       
PG32  17476.640096 -16379.376180  11407.177543   -293.614374  6  6  4  85       
EOF
